[{"OBJECT_NAME":"OBJECT A","OBJECT_ID":"2025-013A","EPOCH":"2026-03-09T23:29:31.895232","MEAN_MOTION":15.29260221,"ECCENTRICITY":0.0010321,"INCLINATION":97.6364,"RA_OF_ASC_NODE":244.5149,"ARG_OF_PERICENTER":282.3775,"MEAN_ANOMALY":77.6309,"EPHEMERIS_TYPE":0,"CLASSIFICATION_TYPE":"U","NORAD_CAT_ID":62729,"ELEMENT_SET_NO":999,"REV_AT_EPOCH":6276,"BSTAR":0.0013206527,"MEAN_MOTION_DOT":0.00037616,"MEAN_MOTION_DDOT":0},{"OBJECT_NAME":"STARLINK-32871","OBJECT_ID":"2025-027T","EPOCH":"2026-03-09T10:29:26.112192","MEAN_MOTION":15.27579107,"ECCENTRICITY":0.00013795,"INCLINATION":43.0008,"RA_OF_ASC_NODE":130.2939,"ARG_OF_PERICENTER":287.4298,"MEAN_ANOMALY":72.6402,"EPHEMERIS_TYPE":0,"CLASSIFICATION_TYPE":"U","NORAD_CAT_ID":62924,"ELEMENT_SET_NO":999,"REV_AT_EPOCH":6150,"BSTAR":0.00087290441,"MEAN_MOTION_DOT":0.00023835,"MEAN_MOTION_DDOT":0}]
